IRIDIUM 144             
1 43249U 18030A   24158.49823369  .00000187  00000+0  59883-4 0  9990
2 43249  86.3985 239.9255 0002368 101.7843 258.3618 14.34218666323979
IRIDIUM 149             
1 43250U 18030B   24158.50457703  .00000068  00000+0  17099-4 0  9990
2 43250  86.3984 239.8981 0002431  97.2281 262.9191 14.34218001323993
IRIDIUM 157             
1 43251U 18030C   24158.52360479  .00000149  00000+0  46062-4 0  9998
2 43251  86.3987 239.9268 0002452  88.4445 271.7031 14.34218237323973
IRIDIUM 140             
1 43252U 18030D   24158.33332615  .00000060  00000+0  14368-4 0  9995
2 43252  86.3987 240.0210 0002120 106.1774 253.9655 14.34217980324002
IRIDIUM 145             
1 43253U 18030E   24158.52994746  .00000062  00000+0  15139-4 0  9995
2 43253  86.3986 239.9125 0002614 102.9785 257.1703 14.34218029323967
IRIDIUM 146             
1 43254U 18030F   24158.51091916  .00000084  00000+0  22915-4 0  9996
2 43254  86.3985 239.9353 0002415  99.4825 260.6644 14.34218241323974
IRIDIUM 148             
1 43255U 18030G   24158.47921721  .00000495  00000+0  16954-3 0  9999
2 43255  86.3985 239.9802 0002500  93.0586 267.0896 14.34219442324002
IRIDIUM 142             
1 43256U 18030H   24158.30795587  .00000107  00000+0  31208-4 0  9991
2 43256  86.3970 239.9664 0002942 108.2422 251.9095 14.34222303323946
